OBJECT_NAME,OBJECT_ID,EPOCH,MEAN_MOTION,ECCENTRICITY,INCLINATION,RA_OF_ASC_NODE,ARG_OF_PERICENTER,MEAN_ANOMALY,EPHEMERIS_TYPE,CLASSIFICATION_TYPE,NORAD_CAT_ID,ELEMENT_SET_NO,REV_AT_EPOCH,BSTAR,MEAN_MOTION_DOT,MEAN_MOTION_DDOT
STARLINK-1460,2020-035V,2026-07-24T01:32:55.179456,15.39120959,.00047355,53.1547,148.1818,63.3528,296.7961,0,U,45676,999,33964,.84728795E-3,.33096E-3,0
STARLINK-1392,2020-035W,2026-07-24T05:43:12.233856,15.42722792,.00050196,53.1499,144.8379,51.5775,308.5681,0,U,45677,999,33974,.1592157E-2,.70867E-3,0
STARLINK-1394,2020-035Y,2026-07-24T01:36:56.942208,15.71463538,.00008684,53.0381,90.5772,160.5963,199.5087,0,U,45679,999,34046,.5876167E-3,.76718E-3,0
STARLINK-1402,2020-035AE,2026-07-24T01:01:48.309600,15.68419449,.0000685,53.0400,83.3571,182.2690,177.8323,0,U,45685,999,34057,.38319842E-3,.43676E-3,0
STARLINK-1404,2020-035AF,2026-07-24T04:14:21.690816,15.48898230,.00056752,53.1554,124.7462,34.9453,325.1928,0,U,45686,999,34002,.15398872E-2,.84933E-3,0
STARLINK-1413,2020-035AJ,2026-07-24T02:36:19.546848,15.38718311,.00060701,53.1551,132.6753,44.0960,316.0527,0,U,45689,999,33982,.65604721E-3,.25177E-3,0
STARLINK-1417,2020-035AN,2026-07-24T06:46:08.387328,15.18786623,.00029425,53.0493,152.1081,351.8264,8.2681,0,U,45693,999,33961,.11916997E-2,.2486E-3,0
STARLINK-1420,2020-035AQ,2026-07-23T01:58:30.116064,15.75914112,.00012589,53.0420,77.4094,221.4988,138.5935,0,U,45695,999,34056,.56863902E-3,.90105E-3,0
STARLINK-1422,2020-035AR,2026-07-24T01:47:21.122592,15.40676226,.00016177,53.1535,132.3767,111.4288,248.6890,0,U,45696,999,33990,.16378522E-2,.6804E-3,0
STARLINK-1351,2020-035AS,2026-07-24T01:01:38.938656,15.71034718,.00006905,53.0411,74.3667,314.3368,45.7592,0,U,45697,999,34069,.42663282E-3,.54388E-3,0
STARLINK-1400,2020-035AV,2026-07-24T05:20:44.714400,15.75975598,.00011283,53.0422,75.0164,189.0549,171.0449,0,U,45700,999,34069,.5966678E-3,.94889E-3,0
STARLINK-1403,2020-035AW,2026-07-24T00:42:14.573376,15.37571812,.00044096,53.1527,120.9123,59.3546,300.7892,0,U,45701,999,34005,.11711917E-2,.43687E-3,0
STARLINK-1407,2020-035AY,2026-07-22T21:12:01.646496,15.82067000,.00035916,53.0266,6.0133,219.9767,140.0990,0,U,45703,999,34154,.58830488E-3,.123834E-2,0
STARLINK-1423,2020-035BF,2026-07-23T23:03:04.325472,15.74345887,.00031491,53.0418,72.7256,222.1579,137.9197,0,U,45710,999,34069,.43809832E-3,.64481E-3,0
STARLINK-1433,2020-035BG,2026-07-24T02:06:26.754624,15.80505664,.00016062,53.0407,69.3954,229.1458,130.9424,0,U,45711,999,34075,.44571805E-3,.86687E-3,0
STARLINK-1434,2020-035BH,2026-07-24T02:54:15.844608,15.38037903,.0002754,53.0476,102.3720,119.9771,240.1506,0,U,45712,999,34031,.14999075E-2,.57013E-3,0
STARLINK-1465,2020-038B,2026-07-24T05:45:11.729376,15.73596311,.00039361,53.0407,275.8427,354.6729,5.4246,0,U,45731,999,33772,.62693532E-3,.89877E-3,0
STARLINK-1471,2020-038F,2026-07-24T05:59:07.551744,15.56804698,.00029038,53.0425,204.1865,20.0943,340.0181,0,U,45735,999,33874,.11649818E-2,.85435E-3,0
STARLINK-1480,2020-038M,2026-07-24T04:37:56.305056,15.69942497,.000089,53.0458,270.9006,111.2808,248.8304,0,U,45741,999,33780,.60676819E-3,.74306E-3,0
STARLINK-1500,2020-038Q,2026-07-24T06:04:27.174720,15.41428374,.00030831,53.0341,268.8100,357.4903,2.6085,0,U,45744,999,33783,.12029542E-2,.51027E-3,0
STARLINK-1504,2020-038S,2026-07-24T05:16:24.187296,15.62165928,.00025264,53.0175,198.9854,21.0467,339.0649,0,U,45746,999,33879,.58190937E-3,.51883E-3,0
STARLINK-1506,2020-038T,2026-07-24T05:43:29.133696,15.29592806,.00031129,53.0754,289.0571,345.9515,14.1397,0,U,45747,999,33756,.14345977E-2,.41582E-3,0
STARLINK-1464,2020-038X,2026-07-24T07:48:40.005792,15.56892919,.0001079,53.0452,267.4675,130.7700,229.3405,0,U,45751,999,33786,.11116626E-2,.81725E-3,0
STARLINK-1477,2020-038AA,2026-07-24T07:54:33.972768,15.21225074,.00011332,53.0458,308.5655,9.8786,350.2231,0,U,45754,999,33728,.17151689E-2,.38649E-3,0
STARLINK-1478,2020-038AB,2026-07-24T06:31:44.315616,15.76427834,.00046114,53.0426,246.5444,26.5421,333.5834,0,U,45755,999,33813,.59803542E-3,.97101E-3,0
STARLINK-1493,2020-038AF,2026-07-24T06:20:34.404576,15.69897486,.0001856,53.0437,258.1284,121.4592,238.6606,0,U,45759,999,33797,.59553008E-3,.72771E-3,0
STARLINK-1502,2020-038AL,2026-07-24T05:27:23.098752,15.68968903,.00039661,53.0416,262.5490,24.8083,335.3123,0,U,45764,999,33792,.60575704E-3,.71232E-3,0
STARLINK-1470,2020-038AU,2026-07-24T06:28:01.740576,15.38692837,.00017709,53.0414,254.9129,33.2852,326.8262,0,U,45772,999,33803,.11364735E-2,.43961E-3,0
STARLINK-1482,2020-038AV,2026-07-24T07:51:01.497888,15.41672549,.00014696,53.1549,270.7371,44.6205,315.4919,0,U,45773,999,33784,.12435235E-2,.53201E-3,0
STARLINK-1496,2020-038BC,2026-07-24T07:03:06.465312,15.74532892,.00066045,53.0410,230.8934,27.9944,332.1429,0,U,45780,999,33835,.62985213E-3,.9416E-3,0
