{"epoch":1784902576,"count":18312,"objects":[{"id":"45676","name":"STARLINK-1460","type":"PAYLOAD","l1":"1 45676U 20035V   26205.06452754  .00033096  00000-0  84729-3 0  9990","l2":"2 45676  53.1547 148.1818 0004736  63.3528 296.7961 15.39120959339642"},{"id":"45677","name":"STARLINK-1392","type":"PAYLOAD","l1":"1 45677U 20035W   26205.23833604  .00070867  00000-0  15922-2 0  9992","l2":"2 45677  53.1499 144.8379 0005020  51.5775 308.5681 15.42722792339743"},{"id":"45679","name":"STARLINK-1394","type":"PAYLOAD","l1":"1 45679U 20035Y   26205.06732572  .00076718  00000-0  58762-3 0  9998","l2":"2 45679  53.0381  90.5772 0000868 160.5963 199.5087 15.71463538340464"},{"id":"45685","name":"STARLINK-1402","type":"PAYLOAD","l1":"1 45685U 20035AE  26205.04292025  .00043676  00000-0  38320-3 0  9992","l2":"2 45685  53.0400  83.3571 0000685 182.2690 177.8323 15.68419449340577"},{"id":"45686","name":"STARLINK-1404","type":"PAYLOAD","l1":"1 45686U 20035AF  26205.17663994  .00084933  00000-0  15399-2 0  9995","l2":"2 45686  53.1554 124.7462 0005675  34.9453 325.1928 15.48898230340028"},{"id":"45689","name":"STARLINK-1413","type":"PAYLOAD","l1":"1 45689U 20035AJ  26205.10855957  .00025177  00000-0  65605-3 0  9994","l2":"2 45689  53.1551 132.6753 0006070  44.0960 316.0527 15.38718311339824"},{"id":"45693","name":"STARLINK-1417","type":"PAYLOAD","l1":"1 45693U 20035AN  26205.28204152  .00024860  00000-0  11917-2 0  9997","l2":"2 45693  53.0493 152.1081 0002943 351.8264   8.2681 15.18786623339612"},{"id":"45695","name":"STARLINK-1420","type":"PAYLOAD","l1":"1 45695U 20035AQ  26204.08229301  .00090105  00000-0  56864-3 0  9995","l2":"2 45695  53.0420  77.4094 0001259 221.4988 138.5935 15.75914112340565"},{"id":"45696","name":"STARLINK-1422","type":"PAYLOAD","l1":"1 45696U 20035AR  26205.07455003  .00068040  00000-0  16379-2 0  9995","l2":"2 45696  53.1535 132.3767 0001618 111.4288 248.6890 15.40676226339904"},{"id":"45697","name":"STARLINK-1351","type":"PAYLOAD","l1":"1 45697U 20035AS  26205.04281179  .00054388  00000-0  42663-3 0  9990","l2":"2 45697  53.0411  74.3667 0000691 314.3368  45.7592 15.71034718340695"},{"id":"45700","name":"STARLINK-1400","type":"PAYLOAD","l1":"1 45700U 20035AV  26205.22273975  .00094889  00000-0  59667-3 0  9992","l2":"2 45700  53.0422  75.0164 0001128 189.0549 171.0449 15.75975598340694"},{"id":"45701","name":"STARLINK-1403","type":"PAYLOAD","l1":"1 45701U 20035AW  26205.02933534  .00043687  00000-0  11712-2 0  9993","l2":"2 45701  53.1527 120.9123 0004410  59.3546 300.7892 15.37571812340052"},{"id":"45703","name":"STARLINK-1407","type":"PAYLOAD","l1":"1 45703U 20035AY  26203.88335239  .00123834  00000-0  58830-3 0  9991","l2":"2 45703  53.0266   6.0133 0003592 219.9767 140.0990 15.82067000341545"},{"id":"45710","name":"STARLINK-1423","type":"PAYLOAD","l1":"1 45710U 20035BF  26204.96046673  .00064481  00000-0  43810-3 0  9994","l2":"2 45710  53.0418  72.7256 0003149 222.1579 137.9197 15.74345887340695"},{"id":"45711","name":"STARLINK-1433","type":"PAYLOAD","l1":"1 45711U 20035BG  26205.08780966  .00086687  00000-0  44572-3 0  9997","l2":"2 45711  53.0407  69.3954 0001606 229.1458 130.9424 15.80505664340751"},{"id":"45712","name":"STARLINK-1434","type":"PAYLOAD","l1":"1 45712U 20035BH  26205.12101672  .00057013  00000-0  14999-2 0  9994","l2":"2 45712  53.0476 102.3720 0002754 119.9771 240.1506 15.38037903340312"},{"id":"45731","name":"STARLINK-1465","type":"PAYLOAD","l1":"1 45731U 20038B   26205.23971909  .00089877  00000-0  62694-3 0  9997","l2":"2 45731  53.0407 275.8427 0003936 354.6729   5.4246 15.73596311337727"},{"id":"45735","name":"STARLINK-1471","type":"PAYLOAD","l1":"1 45735U 20038F   26205.24939296  .00085435  00000-0  11650-2 0  9996","l2":"2 45735  53.0425 204.1865 0002904  20.0943 340.0181 15.56804698338748"},{"id":"45741","name":"STARLINK-1480","type":"PAYLOAD","l1":"1 45741U 20038M   26205.19301279  .00074306  00000-0  60677-3 0  9990","l2":"2 45741  53.0458 270.9006 0000890 111.2808 248.8304 15.69942497337806"},{"id":"45744","name":"STARLINK-1500","type":"PAYLOAD","l1":"1 45744U 20038Q   26205.25309230  .00051027  00000-0  12030-2 0  9999","l2":"2 45744  53.0341 268.8100 0003083 357.4903   2.6085 15.41428374337836"},{"id":"45746","name":"STARLINK-1504","type":"PAYLOAD","l1":"1 45746U 20038S   26205.21972439  .00051883  00000-0  58191-3 0  9993","l2":"2 45746  53.0175 198.9854 0002526  21.0467 339.0649 15.62165928338797"},{"id":"45747","name":"STARLINK-1506","type":"PAYLOAD","l1":"1 45747U 20038T   26205.23853164  .00041582  00000-0  14346-2 0  9997","l2":"2 45747  53.0754 289.0571 0003113 345.9515  14.1397 15.29592806337561"},{"id":"45751","name":"STARLINK-1464","type":"PAYLOAD","l1":"1 45751U 20038X   26205.32546303  .00081725  00000-0  11117-2 0  9992","l2":"2 45751  53.0452 267.4675 0001079 130.7700 229.3405 15.56892919337862"},{"id":"45754","name":"STARLINK-1477","type":"PAYLOAD","l1":"1 45754U 20038AA  26205.32955987  .00038649  00000-0  17152-2 0  9999","l2":"2 45754  53.0458 308.5655 0001133   9.8786 350.2231 15.21225074337288"},{"id":"45755","name":"STARLINK-1478","type":"PAYLOAD","l1":"1 45755U 20038AB  26205.27204069  .00097101  00000-0  59804-3 0  9991","l2":"2 45755  53.0426 246.5444 0004611  26.5421 333.5834 15.76427834338133"},{"id":"45759","name":"STARLINK-1493","type":"PAYLOAD","l1":"1 45759U 20038AF  26205.26428709  .00072771  00000-0  59553-3 0  9990","l2":"2 45759  53.0437 258.1284 0001856 121.4592 238.6606 15.69897486337971"},{"id":"45764","name":"STARLINK-1502","type":"PAYLOAD","l1":"1 45764U 20038AL  26205.22735068  .00071232  00000-0  60576-3 0  9999","l2":"2 45764  53.0416 262.5490 0003966  24.8083 335.3123 15.68968903337923"},{"id":"45772","name":"STARLINK-1470","type":"PAYLOAD","l1":"1 45772U 20038AU  26205.26946459  .00043961  00000-0  11365-2 0  9999","l2":"2 45772  53.0414 254.9129 0001771  33.2852 326.8262 15.38692837338033"},{"id":"45773","name":"STARLINK-1482","type":"PAYLOAD","l1":"1 45773U 20038AV  26205.32710067  .00053201  00000-0  12435-2 0  9998","l2":"2 45773  53.1549 270.7371 0001470  44.6205 315.4919 15.41672549337846"},{"id":"45780","name":"STARLINK-1496","type":"PAYLOAD","l1":"1 45780U 20038BC  26205.29382483  .00094160  00000-0  62985-3 0  9994","l2":"2 45780  53.0410 230.8934 0006605  27.9944 332.1429 15.74532892338352"}]}